OBJECT_NAME,OBJECT_ID,EPOCH,MEAN_MOTION,ECCENTRICITY,INCLINATION,RA_OF_ASC_NODE,ARG_OF_PERICENTER,MEAN_ANOMALY,EPHEMERIS_TYPE,CLASSIFICATION_TYPE,NORAD_CAT_ID,ELEMENT_SET_NO,REV_AT_EPOCH,BSTAR,MEAN_MOTION_DOT,MEAN_MOTION_DDOT
FENGYUN 3D,2017-072A,2026-07-18T13:53:49.722144,14.19743973,.00013788,99.0150,174.5720,7.7171,352.4026,0,U,43010,999,44944,-.52800632E-4,-.158E-5,0
NOAA 20 (JPSS-1),2017-073A,2026-07-18T13:54:00.526464,14.19516825,.0001512,98.7772,138.7638,120.7288,239.4037,0,U,43013,999,44892,.32731681E-4,.25E-6,0
GOES 17,2018-022A,2026-07-18T12:47:59.304192,1.00270821,.0000625,1.0158,85.2110,68.3954,245.2221,0,U,43226,999,3073,0,-.19E-5,0
SENTINEL-3B,2018-039A,2026-07-18T11:13:22.571040,14.26736912,.00012225,98.6234,266.5486,118.7728,241.3575,0,U,43437,999,42858,.35884118E-4,.43E-6,0
FENGYUN 2H,2018-050A,2026-07-18T13:36:02.663136,1.00266946,.00022185,3.1104,78.7063,133.3844,7.3647,0,U,43491,999,2975,0,-.134E-5,0
METOP-C,2018-087A,2026-07-18T14:26:13.719552,14.21503393,.00021226,98.6627,258.6282,89.2369,270.9052,0,U,43689,999,39929,.3326996E-4,.29E-6,0
GEO-KOMPSAT-2A,2018-100A,2026-07-18T12:07:25.691808,1.00273044,.00023281,0.0305,159.2361,296.9491,150.2314,0,U,43823,999,2794,0,-.351E-5,0
METEOR-M2 2,2019-038A,2026-07-18T13:47:05.568864,14.24373906,.00005154,98.9164,187.3259,354.6416,5.4756,0,U,44387,999,36576,.84145005E-4,.149E-5,0
ARKTIKA-M 1,2021-016A,2026-07-14T09:46:38.558208,2.00611590,.7297332,63.2662,53.6722,270.0591,14.4994,0,U,47719,999,3933,0,-.301E-5,0
FENGYUN 3E,2021-062A,2026-07-18T15:07:04.939392,14.19907153,.00020688,98.7500,202.6886,32.9114,327.2191,0,U,49008,999,26104,.11166869E-3,.193E-5,0
GOES 18,2022-021A,2026-07-18T14:23:38.723136,1.00272027,.00004707,0.0124,94.1316,73.8898,207.2831,0,U,51850,999,690,0,.9E-6,0
NOAA 21 (JPSS-2),2022-150A,2026-07-18T12:58:56.409024,14.19541332,.00028893,98.7059,137.8036,98.7269,261.4235,0,U,54234,999,19099,.19502757E-4,-.2E-7,0
METEOSAT-12 (MTG-I1),2022-170C,2026-07-18T08:05:29.832576,1.00268639,.00039471,0.7285,20.2937,81.2750,315.5861,0,U,54743,999,1329,0,-.16E-6,0
TIANMU-1 03,2023-039A,2026-07-18T14:25:27.765984,15.48102558,.00022963,97.5248,14.8224,15.2713,344.8606,0,U,55973,999,18569,.16110666E-3,.8352E-4,0
TIANMU-1 04,2023-039B,2026-07-18T13:52:24.537792,15.48732134,.00026857,97.5189,13.9547,359.5497,0.5751,0,U,55974,999,18570,.16644008E-3,.8825E-4,0
TIANMU-1 05,2023-039C,2026-07-18T13:59:58.936128,15.48027893,.00026714,97.5233,14.4070,37.1496,322.9938,0,U,55975,999,18567,.15922683E-3,.8232E-4,0
TIANMU-1 06,2023-039D,2026-07-18T14:00:11.955744,15.48628097,.00027301,97.5241,15.0749,27.1753,332.9640,0,U,55976,999,18570,.16347874E-3,.8634E-4,0
FENGYUN 3G,2023-055A,2026-07-18T11:59:20.942016,15.53884047,.00069272,49.9913,184.5167,71.5109,288.6611,0,U,56232,999,18487,.21811428E-3,.13893E-3,0
METEOR-M2 3,2023-091A,2026-07-18T15:30:32.605344,14.24049122,.00051243,98.6066,253.9779,82.6290,277.5471,0,U,57166,999,15899,.10629993E-4,-.19E-6,0
TIANMU-1 07,2023-101A,2026-07-18T14:58:42.222720,15.30137716,.00035038,97.2572,249.5743,57.6137,302.5443,0,U,57399,999,16645,.10537144E-3,.2999E-4,0
TIANMU-1 08,2023-101B,2026-07-18T14:10:32.907360,15.30141047,.00042814,97.2561,249.3077,37.5715,322.5825,0,U,57400,999,16644,.10686623E-3,.3043E-4,0
TIANMU-1 09,2023-101C,2026-07-18T13:45:35.667072,15.30182792,.00041203,97.2519,248.6907,56.9853,303.1784,0,U,57401,999,16644,.11029552E-3,.3147E-4,0
TIANMU-1 10,2023-101D,2026-07-18T14:33:58.605984,15.30156606,.00053557,97.2599,249.8061,44.9451,315.2223,0,U,57402,999,16644,.10829248E-3,.3086E-4,0
FENGYUN 3F,2023-111A,2026-07-18T14:42:49.775040,14.19943765,.00012054,98.6823,269.0341,75.6179,284.5131,0,U,57490,999,15332,.19779545E-4,-.1E-7,0
ARKTIKA-M 2,2023-198A,2026-07-15T04:12:00.091584,2.00608092,.69107365,63.2178,151.2342,267.3397,18.7345,0,U,58584,999,1888,0,.129E-5,0
TIANMU-1 11,2023-205A,2026-07-18T13:41:18.171744,15.27282454,.00069208,97.3442,220.6399,246.8274,113.2237,0,U,58645,999,14231,.99919099E-4,.2598E-4,0
TIANMU-1 12,2023-205B,2026-07-18T09:53:22.905024,15.27114343,.00060948,97.3431,220.2298,220.4884,139.5903,0,U,58646,999,14227,.10886909E-3,.2823E-4,0
TIANMU-1 13,2023-205C,2026-07-18T13:50:16.425600,15.27107543,.00061817,97.3459,220.6728,198.7574,161.3438,0,U,58647,999,14229,.10450629E-3,.2706E-4,0
TIANMU-1 14,2023-205D,2026-07-18T15:02:00.895200,15.27151739,.00067766,97.3396,219.8791,206.1864,153.9033,0,U,58648,999,14230,.10367468E-3,.2688E-4,0
TIANMU-1 19,2023-208A,2026-07-18T13:51:29.850912,15.32005873,.00049498,97.4529,316.0515,185.9828,174.1355,0,U,58660,999,14213,.14178376E-3,.4303E-4,0
