FENGYUN 3D              
1 43010U 17072A   26199.57904771 -.00000158  00000+0 -52801-4 0  9997
2 43010  99.0150 174.5720 0001378   7.7171 352.4026 14.19743973449447
NOAA 20 (JPSS-1)        
1 43013U 17073A   26199.57917276  .00000025  00000+0  32732-4 0  9997
2 43013  98.7772 138.7638 0001512 120.7288 239.4037 14.19516825448923
GOES 17                 
1 43226U 18022A   26199.53332528 -.00000190  00000+0  00000+0 0  9997
2 43226   1.0158  85.2110 0000625  68.3954 245.2221  1.00270821 30731
SENTINEL-3B             
1 43437U 18039A   26199.46762235  .00000043  00000+0  35884-4 0  9992
2 43437  98.6234 266.5486 0001222 118.7728 241.3575 14.26736912428588
FENGYUN 2H              
1 43491U 18050A   26199.56669749 -.00000134  00000+0  00000+0 0  9991
2 43491   3.1104  78.7063 0002218 133.3844   7.3647  1.00266946 29756
METOP-C                 
1 43689U 18087A   26199.60154768  .00000029  00000+0  33270-4 0  9997
2 43689  98.6627 258.6282 0002122  89.2369 270.9052 14.21503393399295
GEO-KOMPSAT-2A          
1 43823U 18100A   26199.50515847 -.00000351  00000+0  00000+0 0  9990
2 43823   0.0305 159.2361 0002328 296.9491 150.2314  1.00273044 27941
METEOR-M2 2             
1 44387U 19038A   26199.57437001  .00000149  00000+0  84145-4 0  9990
2 44387  98.9164 187.3259 0000515 354.6416   5.4756 14.24373906365763
ARKTIKA-M 1             
1 47719U 21016A   26195.40739072 -.00000301  00000+0  00000+0 0  9996
2 47719  63.2662  53.6722 7297332 270.0591  14.4994  2.00611590 39330
FENGYUN 3E              
1 49008U 21062A   26199.62991828  .00000193  00000+0  11167-3 0  9995
2 49008  98.7500 202.6886 0002068  32.9114 327.2191 14.19907153261048
GOES 18                 
1 51850U 22021A   26199.59975374  .00000090  00000+0  00000+0 0  9999
2 51850   0.0124  94.1316 0000470  73.8898 207.2831  1.00272027  6905
NOAA 21 (JPSS-2)        
1 54234U 22150A   26199.54093066 -.00000002  00000+0  19503-4 0  9992
2 54234  98.7059 137.8036 0002889  98.7269 261.4235 14.19541332190998
METEOSAT-12 (MTG-I1)    
1 54743U 22170C   26199.33715084 -.00000016  00000+0  00000+0 0  9999
2 54743   0.7285  20.2937 0003947  81.2750 315.5861  1.00268639 13295
TIANMU-1 03             
1 55973U 23039A   26199.60101581  .00008352  00000+0  16111-3 0  9995
2 55973  97.5248  14.8224 0002296  15.2713 344.8606 15.48102558185694
TIANMU-1 04             
1 55974U 23039B   26199.57806178  .00008825  00000+0  16644-3 0  9992
2 55974  97.5189  13.9547 0002685 359.5497   0.5751 15.48732134185700
TIANMU-1 05             
1 55975U 23039C   26199.58332102  .00008232  00000+0  15923-3 0  9996
2 55975  97.5233  14.4070 0002671  37.1496 322.9938 15.48027893185674
TIANMU-1 06             
1 55976U 23039D   26199.58347171  .00008634  00000+0  16348-3 0  9997
2 55976  97.5241  15.0749 0002730  27.1753 332.9640 15.48628097185703
FENGYUN 3G              
1 56232U 23055A   26199.49954794  .00013893  00000+0  21811-3 0  9990
2 56232  49.9913 184.5167 0006927  71.5109 288.6611 15.53884047184879
METEOR-M2 3             
1 57166U 23091A   26199.64621071 -.00000019  00000+0  10630-4 0  9998
2 57166  98.6066 253.9779 0005124  82.6290 277.5471 14.24049122158997
TIANMU-1 07             
1 57399U 23101A   26199.62409980  .00002999  00000+0  10537-3 0  9992
2 57399  97.2572 249.5743 0003503  57.6137 302.5443 15.30137716166458
TIANMU-1 08             
1 57400U 23101B   26199.59065865  .00003043  00000+0  10687-3 0  9998
2 57400  97.2561 249.3077 0004281  37.5715 322.5825 15.30141047166447
TIANMU-1 09             
1 57401U 23101C   26199.57332948  .00003147  00000+0  11030-3 0  9994
2 57401  97.2519 248.6907 0004120  56.9853 303.1784 15.30182792166446
TIANMU-1 10             
1 57402U 23101D   26199.60692831  .00003086  00000+0  10829-3 0  9996
2 57402  97.2599 249.8061 0005355  44.9451 315.2223 15.30156606166448
FENGYUN 3F              
1 57490U 23111A   26199.61307610 -.00000001  00000+0  19780-4 0  9994
2 57490  98.6823 269.0341 0001205  75.6179 284.5131 14.19943765153328
ARKTIKA-M 2             
1 58584U 23198A   26196.17500106  .00000129  00000+0  00000+0 0  9997
2 58584  63.2178 151.2342 6910736 267.3397  18.7345  2.00608092 18886
TIANMU-1 11             
1 58645U 23205A   26199.57034921  .00002598  00000+0  99919-4 0  9992
2 58645  97.3442 220.6399 0006920 246.8274 113.2237 15.27282454142310
TIANMU-1 12             
1 58646U 23205B   26199.41207066  .00002823  00000+0  10887-3 0  9995
2 58646  97.3431 220.2298 0006094 220.4884 139.5903 15.27114343142277
TIANMU-1 13             
1 58647U 23205C   26199.57657900  .00002706  00000+0  10451-3 0  9996
2 58647  97.3459 220.6728 0006181 198.7574 161.3438 15.27107543142292
TIANMU-1 14             
1 58648U 23205D   26199.62639925  .00002688  00000+0  10367-3 0  9995
2 58648  97.3396 219.8791 0006776 206.1864 153.9033 15.27151739142305
TIANMU-1 19             
1 58660U 23208A   26199.57742883  .00004303  00000+0  14178-3 0  9994
2 58660  97.4529 316.0515 0004949 185.9828 174.1355 15.32005873142132
